[{"OBJECT_NAME":"STARLINK-34926","OBJECT_ID":"2025-175W","EPOCH":"2026-03-09T14:43:25.355424","MEAN_MOTION":15.05656828,"ECCENTRICITY":0.000305,"INCLINATION":97.602,"RA_OF_ASC_NODE":302.6561,"ARG_OF_PERICENTER":98.7357,"MEAN_ANOMALY":261.4215,"EPHEMERIS_TYPE":0,"CLASSIFICATION_TYPE":"U","NORAD_CAT_ID":65194,"ELEMENT_SET_NO":999,"REV_AT_EPOCH":3260,"BSTAR":0.00051926,"MEAN_MOTION_DOT":7.441e-5,"MEAN_MOTION_DDOT":0},{"OBJECT_NAME":"SLS DEB","OBJECT_ID":"2022-156E","EPOCH":"2026-03-08T23:54:32.461920","MEAN_MOTION":13.34108685,"ECCENTRICITY":0.10223164,"INCLINATION":30.4694,"RA_OF_ASC_NODE":285.8849,"ARG_OF_PERICENTER":318.6769,"MEAN_ANOMALY":34.0679,"EPHEMERIS_TYPE":0,"CLASSIFICATION_TYPE":"U","NORAD_CAT_ID":55905,"ELEMENT_SET_NO":999,"REV_AT_EPOCH":14064,"BSTAR":0.0048011197,"MEAN_MOTION_DOT":0.00073659,"MEAN_MOTION_DDOT":0}]
